start=new Date('2023-01-05T00:00:00.000Z').valueOf();
sats=[{"APOAPSIS":"548.713","TLE_LINE1":"1 47816U 21018AF  23004.45188880  .00002036  00000-0  15558-3 0  9997","RCS_SIZE":"LARGE","OBJECT_NAME":"STARLINK-2399","ECCENTRICITY":"0.00021620","OBJECT_TYPE":"PAYLOAD","ARG_OF_PERICENTER":"37.4492","SEMIMAJOR_AXIS":"6925.351","BSTAR":"0.00015558000000","EPHEMERIS_TYPE":"0","MEAN_ANOMALY":"322.6647","PERIOD":"95.592","MEAN_MOTION_DOT":"0.00002036","DECAY_DATE":null,"CLASSIFICATION_TYPE":"U","ELEMENT_SET_NO":"999","NORAD_CAT_ID":"47816","GP_ID":"222157506","CENTER_NAME":"EARTH","SITE":"AFETR","TLE_LINE2":"2 47816  53.0551  60.1337 0002162  37.4492 322.6647 15.06399176101714","COUNTRY_CODE":"US","REF_FRAME":"TEME","REV_AT_EPOCH":"10171","RA_OF_ASC_NODE":"60.1337","INCLINATION":"53.0551","LAUNCH_DATE":"2021-03-11","EPOCH":"2023-01-04T10:50:43.192320","MEAN_ELEMENT_THEORY":"SGP4","TIME_SYSTEM":"UTC","MEAN_MOTION":"15.06399176","MEAN_MOTION_DDOT":"0.0000000000000","FILE":"3731823","OBJECT_ID":"2021-018AF","PERIAPSIS":"545.719"},{"SITE":"AFETR","TLE_LINE2":"2 47817  53.0550  60.0543 0002563  34.0510 326.0643 15.06405073101382","GP_ID":"222192504","CENTER_NAME":"EARTH","REF_FRAME":"TEME","RA_OF_ASC_NODE":"60.0543","REV_AT_EPOCH":"10138","COUNTRY_CODE":"US","LAUNCH_DATE":"2021-03-11","MEAN_ELEMENT_THEORY":"SGP4","INCLINATION":"53.0550","EPOCH":"2023-01-04T11:17:15.413856","TIME_SYSTEM":"UTC","OBJECT_ID":"2021-018AG","PERIAPSIS":"545.423","MEAN_MOTION":"15.06405073","MEAN_MOTION_DDOT":"0.0000000000000","FILE":"3731999","RCS_SIZE":"LARGE","APOAPSIS":"548.973","TLE_LINE1":"1 47817U 21018AG  23004.47031729  .00007804  00000-0  54218-3 0  9993","OBJECT_TYPE":"PAYLOAD","ARG_OF_PERICENTER":"34.0510","SEMIMAJOR_AXIS":"6925.333","ECCENTRICITY":"0.00025630","OBJECT_NAME":"STARLINK-2400","PERIOD":"95.592","MEAN_MOTION_DOT":"0.00007804","BSTAR":"0.00054218000000","EPHEMERIS_TYPE":"0","MEAN_ANOMALY":"326.0643","ELEMENT_SET_NO":"999","NORAD_CAT_ID":"47817","DECAY_DATE":null,"CLASSIFICATION_TYPE":"U"},{"COUNTRY_CODE":"US","REV_AT_EPOCH":"10164","RA_OF_ASC_NODE":"65.2189","REF_FRAME":"TEME","CENTER_NAME":"EARTH","GP_ID":"222159008","TLE_LINE2":"2 47818  53.0550  65.2189 0002533  35.1865 324.9291 15.06427142101644","SITE":"AFETR","MEAN_MOTION":"15.06427142","FILE":"3731823","MEAN_MOTION_DDOT":"0.0000000000000","OBJECT_ID":"2021-018AH","PERIAPSIS":"545.376","LAUNCH_DATE":"2021-03-11","EPOCH":"2023-01-04T10:19:29.295552","INCLINATION":"53.0550","MEAN_ELEMENT_THEORY":"SGP4","TIME_SYSTEM":"UTC","ECCENTRICITY":"0.00025330","OBJECT_NAME":"STARLINK-2401","OBJECT_TYPE":"PAYLOAD","ARG_OF_PERICENTER":"35.1865","SEMIMAJOR_AXIS":"6925.265","TLE_LINE1":"1 47818U 21018AH  23004.43020018  .00009719  00000-0  66997-3 0  9993","APOAPSIS":"548.885","RCS_SIZE":"LARGE","CLASSIFICATION_TYPE":"U","DECAY_DATE":null,"NORAD_CAT_ID":"47818","ELEMENT_SET_NO":"999","BSTAR":"0.00066997000000","EPHEMERIS_TYPE":"0","MEAN_ANOMALY":"324.9291","PERIOD":"95.590","MEAN_MOTION_DOT":"0.00009719"},{"REF_FRAME":"TEME","REV_AT_EPOCH":"10177","RA_OF_ASC_NODE":"60.3270","COUNTRY_CODE":"US","SITE":"AFETR","TLE_LINE2":"2 47819  53.0547  60.3270 0002057  37.8534 322.2600 15.06410107101773","GP_ID":"222159252","CENTER_NAME":"EARTH","OBJECT_ID":"2021-018AJ","PERIAPSIS":"545.758","MEAN_MOTION":"15.06410107","MEAN_MOTION_DDOT":"0.0000000000000","FILE":"3731823","EPOCH":"2023-01-04T09:45:40.204512","LAUNCH_DATE":"2021-03-11","INCLINATION":"53.0547","MEAN_ELEMENT_THEORY":"SGP4","TIME_SYSTEM":"UTC","OBJECT_TYPE":"PAYLOAD","SEMIMAJOR_AXIS":"6925.318","ARG_OF_PERICENTER":"37.8534","ECCENTRICITY":"0.00020570","OBJECT_NAME":"STARLINK-2402","RCS_SIZE":"MEDIUM","APOAPSIS":"548.607","TLE_LINE1":"1 47819U 21018AJ  23004.40671533  .00005407  00000-0  38151-3 0  9996","ELEMENT_SET_NO":"999","NORAD_CAT_ID":"47819","DECAY_DATE":null,"CLASSIFICATION_TYPE":"U","PERIOD":"95.591","MEAN_MOTION_DOT":"0.00005407","EPHEMERIS_TYPE":"0","BSTAR":"0.00038151000000","MEAN_ANOMALY":"322.2600"},{"ELEMENT_SET_NO":"999","NORAD_CAT_ID":"47820","DECAY_DATE":null,"CLASSIFICATION_TYPE":"U","MEAN_MOTION_DOT":"0.00006839","PERIOD":"95.591","MEAN_ANOMALY":"314.7963","BSTAR":"0.00047743000000","EPHEMERIS_TYPE":"0","ARG_OF_PERICENTER":"45.3198","SEMIMAJOR_AXIS":"6925.316","OBJECT_TYPE":"PAYLOAD","ECCENTRICITY":"0.00021110","OBJECT_NAME":"STARLINK-2403","RCS_SIZE":"LARGE","APOAPSIS":"548.643","TLE_LINE1":"1 47820U 21018AK  23004.45465291  .00006839  00000-0  47743-3 0  9992","PERIAPSIS":"545.719","OBJECT_ID":"2021-018AK","MEAN_MOTION_DDOT":"0.0000000000000","FILE":"3731823","MEAN_MOTION":"15.06410742","TIME_SYSTEM":"UTC","LAUNCH_DATE":"2021-03-11","INCLINATION":"53.0535","MEAN_ELEMENT_THEORY":"SGP4","EPOCH":"2023-01-04T10:54:42.011424","REF_FRAME":"TEME","RA_OF_ASC_NODE":"70.1217","REV_AT_EPOCH":"10163","COUNTRY_CODE":"US","SITE":"AFETR","TLE_LINE2":"2 47820  53.0535  70.1217 0002111  45.3198 314.7963 15.06410742101631","GP_ID":"222158007","CENTER_NAME":"EARTH"},{"ECCENTRICITY":"0.00018430","OBJECT_NAME":"STARLINK-2406","OBJECT_TYPE":"PAYLOAD","ARG_OF_PERICENTER":"48.8963","SEMIMAJOR_AXIS":"6925.328","APOAPSIS":"548.470","TLE_LINE1":"1 47821U 21018AL  23004.43345709  .00005608  00000-0  39503-3 0  9990","RCS_SIZE":"LARGE","DECAY_DATE":null,"CLASSIFICATION_TYPE":"U","ELEMENT_SET_NO":"999","NORAD_CAT_ID":"47821","BSTAR":"0.00039503000000","EPHEMERIS_TYPE":"0","MEAN_ANOMALY":"311.2184","PERIOD":"95.592","MEAN_MOTION_DOT":"0.00005608","COUNTRY_CODE":"US","REF_FRAME":"TEME","RA_OF_ASC_NODE":"60.2276","REV_AT_EPOCH":"10171","GP_ID":"222158257","CENTER_NAME":"EARTH","SITE":"AFETR","TLE_LINE2":"2 47821  53.0541  60.2276 0001843  48.8963 311.2184 15.06406650101712","MEAN_MOTION":"15.06406650","FILE":"3731823","MEAN_MOTION_DDOT":"0.0000000000000","OBJECT_ID":"2021-018AL","PERIAPSIS":"545.917","LAUNCH_DATE":"2021-03-11","INCLINATION":"53.0541","MEAN_ELEMENT_THEORY":"SGP4","EPOCH":"2023-01-04T10:24:10.692576","TIME_SYSTEM":"UTC"},{"BSTAR":"0.00009561200000","EPHEMERIS_TYPE":"0","MEAN_ANOMALY":"315.8904","PERIOD":"95.592","MEAN_MOTION_DOT":"0.00001143","DECAY_DATE":null,"CLASSIFICATION_TYPE":"U","ELEMENT_SET_NO":"999","NORAD_CAT_ID":"47822","APOAPSIS":"548.745","TLE_LINE1":"1 47822U 21018AM  23004.44265191  .00001143  00000-0  95612-4 0  9992","RCS_SIZE":"LARGE","ECCENTRICITY":"0.00022090","OBJECT_NAME":"STARLINK-2407","OBJECT_TYPE":"PAYLOAD","ARG_OF_PERICENTER":"44.2261","SEMIMAJOR_AXIS":"6925.350","LAUNCH_DATE":"2021-03-11","EPOCH":"2023-01-04T10:37:25.125024","INCLINATION":"53.0558","MEAN_ELEMENT_THEORY":"SGP4","TIME_SYSTEM":"UTC","MEAN_MOTION":"15.06399558","FILE":"3731823","MEAN_MOTION_DDOT":"0.0000000000000","OBJECT_ID":"2021-018AM","PERIAPSIS":"545.685","GP_ID":"222158508","CENTER_NAME":"EARTH","SITE":"AFETR","TLE_LINE2":"2 47822  53.0558  70.1680 0002209  44.2261 315.8904 15.06399558101581","COUNTRY_CODE":"US","REF_FRAME":"TEME","RA_OF_ASC_NODE":"70.1680","REV_AT_EPOCH":"10158"},{"MEAN_MOTION":"15.06404903","FILE":"3731823","MEAN_MOTION_DDOT":"0.0000000000000","OBJECT_ID":"2021-018AN","PERIAPSIS":"545.803","EPOCH":"2023-01-04T10:59:58.229376","LAUNCH_DATE":"2021-03-11","INCLINATION":"53.0561","MEAN_ELEMENT_THEORY":"SGP4","TIME_SYSTEM":"UTC","COUNTRY_CODE":"US","REV_AT_EPOCH":"10172","RA_OF_ASC_NODE":"60.1003","REF_FRAME":"TEME","CENTER_NAME":"EARTH","GP_ID":"222158752","TLE_LINE2":"2 47823  53.0561  60.1003 0002015  39.6416 320.4720 15.06404903101724","SITE":"AFETR","CLASSIFICATION_TYPE":"U","DECAY_DATE":null,"NORAD_CAT_ID":"47823","ELEMENT_SET_NO":"999","BSTAR":"0.00022878000000","EPHEMERIS_TYPE":"0","MEAN_ANOMALY":"320.4720","PERIOD":"95.592","MEAN_MOTION_DOT":"0.00003128","ECCENTRICITY":"0.00020150","OBJECT_NAME":"STARLINK-2408","OBJECT_TYPE":"PAYLOAD","SEMIMAJOR_AXIS":"6925.334","ARG_OF_PERICENTER":"39.6416","TLE_LINE1":"1 47823U 21018AN  23004.45831284  .00003128  00000-0  22878-3 0  9994","APOAPSIS":"548.594","RCS_SIZE":"LARGE"},{"CENTER_NAME":"EARTH","GP_ID":"222157507","TLE_LINE2":"2 47824  53.0547  60.1568 0002543  34.4417 325.6736 15.06413021101719","SITE":"AFETR","COUNTRY_CODE":"US","REV_AT_EPOCH":"10171","RA_OF_ASC_NODE":"60.1568","REF_FRAME":"TEME","TIME_SYSTEM":"UTC","LAUNCH_DATE":"2021-03-11","MEAN_ELEMENT_THEORY":"SGP4","INCLINATION":"53.0547","EPOCH":"2023-01-04T10:45:24.397920","MEAN_MOTION_DDOT":"0.0000000000000","FILE":"3731823","MEAN_MOTION":"15.06413021","PERIAPSIS":"545.413","OBJECT_ID":"2021-018AP","TLE_LINE1":"1 47824U 21018AP  23004.44819905  .00003861  00000-0  27785-3 0  9996","APOAPSIS":"548.935","RCS_SIZE":"LARGE","OBJECT_NAME":"STARLINK-2409","ECCENTRICITY":"0.00025430","ARG_OF_PERICENTER":"34.4417","SEMIMAJOR_AXIS":"6925.309","OBJECT_TYPE":"PAYLOAD","MEAN_ANOMALY":"325.6736","BSTAR":"0.00027785000000","EPHEMERIS_TYPE":"0","MEAN_MOTION_DOT":"0.00003861","PERIOD":"95.591","CLASSIFICATION_TYPE":"U","DECAY_DATE":null,"NORAD_CAT_ID":"47824","ELEMENT_SET_NO":"999"},{"ARG_OF_PERICENTER":"60.1036","SEMIMAJOR_AXIS":"6925.340","OBJECT_TYPE":"PAYLOAD","ECCENTRICITY":"0.00015590","OBJECT_NAME":"STARLINK-2410","RCS_SIZE":"LARGE","TLE_LINE1":"1 47825U 21018AQ  23004.46662943  .00002080  00000-0  15847-3 0  9995","APOAPSIS":"548.284","NORAD_CAT_ID":"47825","ELEMENT_SET_NO":"999","CLASSIFICATION_TYPE":"U","DECAY_DATE":null,"MEAN_MOTION_DOT":"0.00002080","PERIOD":"95.592","MEAN_ANOMALY":"300.0108","BSTAR":"0.00015847000000","EPHEMERIS_TYPE":"0","REV_AT_EPOCH":"10138","RA_OF_ASC_NODE":"60.0728","REF_FRAME":"TEME","COUNTRY_CODE":"US","TLE_LINE2":"2 47825  53.0545  60.0728 0001559  60.1036 300.0108 15.06402920101383","SITE":"AFETR","CENTER_NAME":"EARTH","GP_ID":"222193062","PERIAPSIS":"546.125","OBJECT_ID":"2021-018AQ","FILE":"3732012","MEAN_MOTION_DDOT":"0.0000000000000","MEAN_MOTION":"15.06402920","TIME_SYSTEM":"UTC","LAUNCH_DATE":"2021-03-11","EPOCH":"2023-01-04T11:11:56.782752","INCLINATION":"53.0545","MEAN_ELEMENT_THEORY":"SGP4"}];
